{
    "links": {
        "self": "http://www.neowsapp.com/rest/v1/neo/3252915?api_key=iIulBulltgU6a56xZRHN4H3l9WmuAYTsLGpBGhQ2"
    },
    "id": "3252915",
    "neo_reference_id": "3252915",
    "name": "(2004 RC252)",
    "designation": "2004 RC252",
    "nasa_jpl_url": "http://ssd.jpl.nasa.gov/sbdb.cgi?sstr=3252915",
    "absolute_magnitude_h": 21.3,
    "estimated_diameter": {
        "kilometers": {
            "estimated_diameter_min": 0.1460679643,
            "estimated_diameter_max": 0.3266178974
        },
        "meters": {
            "estimated_diameter_min": 146.0679642714,
            "estimated_diameter_max": 326.6178974458
        },
        "miles": {
            "estimated_diameter_min": 0.090762397,
            "estimated_diameter_max": 0.2029508896
        },
        "feet": {
            "estimated_diameter_min": 479.2256199,
            "estimated_diameter_max": 1071.581062656
        }
    },
    "is_potentially_hazardous_asteroid": false,
    "close_approach_data": [
        {
            "close_approach_date": "2004-09-09",
            "close_approach_date_full": "2004-Sep-09 23:37",
            "epoch_date_close_approach": 1094773020000,
            "relative_velocity": {
                "kilometers_per_second": "10.5628822428",
                "kilometers_per_hour": "38026.3760739709",
                "miles_per_hour": "23628.1112888515"
            },
            "miss_distance": {
                "astronomical": "0.3771989826",
                "lunar": "146.7304042314",
                "kilometers": "56428164.363127062",
                "miles": "35062835.4499629756"
            },
            "orbiting_body": "Earth"
        }
    ],
    "orbital_data": {
        "orbit_id": "8",
        "orbit_determination_date": "2017-04-06 09:12:16",
        "first_observation_date": "2004-09-15",
        "last_observation_date": "2004-09-21",
        "data_arc_in_days": 6,
        "observations_used": 37,
        "orbit_uncertainty": "9",
        "minimum_orbit_intersection": ".195905",
        "jupiter_tisserand_invariant": "4.901",
        "epoch_osculation": "2453264.5",
        "eccentricity": ".1314593658887416",
        "semi_major_axis": "1.31298298723156",
        "inclination": "19.72312386698028",
        "ascending_node_longitude": "175.4240442841329",
        "orbital_period": "549.5245193975854",
        "perihelion_distance": "1.140379076307393",
        "perihelion_argument": "57.14285157654806",
        "aphelion_distance": "1.485586898155726",
        "perihelion_time": "2453099.233298134781",
        "mean_anomaly": "108.2681674271808",
        "mean_motion": ".655111805374306",
        "equinox": "J2000",
        "orbit_class": {
            "orbit_class_type": "AMO",
            "orbit_class_description": "Near-Earth asteroid orbits similar to that of 1221 Amor",
            "orbit_class_range": "1.017 AU < q (perihelion) < 1.3 AU"
        }
    },
    "is_sentry_object": false
}